{
    "links": {
        "self": "http://www.neowsapp.com/rest/v1/neo/3836281?api_key=iIulBulltgU6a56xZRHN4H3l9WmuAYTsLGpBGhQ2"
    },
    "id": "3836281",
    "neo_reference_id": "3836281",
    "name": "(2018 WQ)",
    "designation": "2018 WQ",
    "nasa_jpl_url": "http://ssd.jpl.nasa.gov/sbdb.cgi?sstr=3836281",
    "absolute_magnitude_h": 26.3,
    "estimated_diameter": {
        "kilometers": {
            "estimated_diameter_min": 0.0146067964,
            "estimated_diameter_max": 0.0326617897
        },
        "meters": {
            "estimated_diameter_min": 14.6067964271,
            "estimated_diameter_max": 32.6617897446
        },
        "miles": {
            "estimated_diameter_min": 0.0090762397,
            "estimated_diameter_max": 0.020295089
        },
        "feet": {
            "estimated_diameter_min": 47.92256199,
            "estimated_diameter_max": 107.1581062656
        }
    },
    "is_potentially_hazardous_asteroid": false,
    "close_approach_data": [
        {
            "close_approach_date": "2018-11-19",
            "close_approach_date_full": "2018-Nov-19 00:42",
            "epoch_date_close_approach": 1542588120000,
            "relative_velocity": {
                "kilometers_per_second": "7.4898719405",
                "kilometers_per_hour": "26963.538985702",
                "miles_per_hour": "16754.0945436435"
            },
            "miss_distance": {
                "astronomical": "0.0280136553",
                "lunar": "10.8973119117",
                "kilometers": "4190783.163794211",
                "miles": "2604031.9074176718"
            },
            "orbiting_body": "Earth"
        },
        {
            "close_approach_date": "2172-12-09",
            "close_approach_date_full": "2172-Dec-09 22:27",
            "epoch_date_close_approach": 6404221620000,
            "relative_velocity": {
                "kilometers_per_second": "4.4118514955",
                "kilometers_per_hour": "15882.6653838515",
                "miles_per_hour": "9868.870610316"
            },
            "miss_distance": {
                "astronomical": "1.3024396227",
                "lunar": "506.6490132303",
                "kilometers": "194842193.359523649",
                "miles": "121069324.8944143962"
            },
            "orbiting_body": "Juptr"
        }
    ],
    "orbital_data": {
        "orbit_id": "2",
        "orbit_determination_date": "2018-12-08 06:25:24",
        "first_observation_date": "2018-11-18",
        "last_observation_date": "2018-12-06",
        "data_arc_in_days": 18,
        "observations_used": 33,
        "orbit_uncertainty": "8",
        "minimum_orbit_intersection": ".0279829",
        "jupiter_tisserand_invariant": "3.082",
        "epoch_osculation": "2458456.5",
        "eccentricity": ".6179379781689572",
        "semi_major_axis": "2.656009948778006",
        "inclination": ".6384022762347947",
        "ascending_node_longitude": "13.18983093323284",
        "orbital_period": "1581.040420211212",
        "perihelion_distance": "1.014760531033489",
        "perihelion_argument": "46.25048752456492",
        "aphelion_distance": "4.297259366522522",
        "perihelion_time": "2458443.977491195723",
        "mean_anomaly": "2.85135225634363",
        "mean_motion": ".2276981634358895",
        "equinox": "J2000",
        "orbit_class": {
            "orbit_class_type": "APO",
            "orbit_class_description": "Near-Earth asteroid orbits which cross the Earth’s orbit similar to that of 1862 Apollo",
            "orbit_class_range": "a (semi-major axis) > 1.0 AU; q (perihelion) < 1.017 AU"
        }
    },
    "is_sentry_object": false
}